{"type": "FeatureCollection", "features": [ {"type": "Feature", "properties": {"norad_id": 37867, "name": "COSMOS 2476 (744)", "group": "gnss", "lat": 63.42316793902675, "lon": 146.83579435169221, "alt_km": 19177.640252736164, "timestamp": "2025-12-10T21:43:22.330320+00:00", "meta": {"OBJECT_NAME": "COSMOS 2476 (744)", "OBJECT_ID": "2011-064A", "EPOCH": "2025-12-09T20:41:15.013248", "MEAN_MOTION": 2.1310124, "ECCENTRICITY": 0.00239101, "INCLINATION": 65.1608, "RA_OF_ASC_NODE": 79.2687, "ARG_OF_PERICENTER": 233.6391, "MEAN_ANOMALY": 126.4016, "EPHEMERIS_TYPE": 0, "CLASSIFICATION_TYPE": "U", "NORAD_CAT_ID": 37867, "ELEMENT_SET_NO": 999, "REV_AT_EPOCH": 10973, "BSTAR": 0, "MEAN_MOTION_DOT": -1.7e-07, "MEAN_MOTION_DDOT": 0}, "tle": {"line1": "1 37867U 11064A   25343.86197932 -.00000017  00000+0  00000+0 0  9992", "line2": "2 37867  65.1608  79.2687 0023910 233.6391 126.4016  2.13101240109734"}}, "geometry": {"type": "Point", "coordinates": [146.83579435169221, 63.42316793902675]}}, {"type": "Feature", "properties": {"norad_id": 37868, "name": "COSMOS 2477 (745)", "group": "gnss", "lat": -63.81142555456196, "lon": -30.612156843763078, "alt_km": 19088.59862341571, "timestamp": "2025-12-10T21:43:22.330332+00:00", "meta": {"OBJECT_NAME": "COSMOS 2477 (745)", "OBJECT_ID": "2011-064B", "EPOCH": "2025-12-09T06:11:12.657696", "MEAN_MOTION": 2.13102656, "ECCENTRICITY": 0.0021072, "INCLINATION": 65.167, "RA_OF_ASC_NODE": 79.367, "ARG_OF_PERICENTER": 234.1716, "MEAN_ANOMALY": 203.2692, "EPHEMERIS_TYPE": 0, "CLASSIFICATION_TYPE": "U", "NORAD_CAT_ID": 37868, "ELEMENT_SET_NO": 999, "REV_AT_EPOCH": 10971, "BSTAR": 0, "MEAN_MOTION_DOT": -1.4e-07, "MEAN_MOTION_DDOT": 0}, "tle": {"line1": "1 37868U 11064B   25343.25778539 -.00000014  00000+0  00000+0 0  9991", "line2": "2 37868  65.1670  79.3670 0021072 234.1716 203.2692  2.13102656109715"}}, "geometry": {"type": "Point", "coordinates": [-30.612156843763078, -63.81142555456196]}}, {"type": "Feature", "properties": {"norad_id": 37869, "name": "COSMOS 2475 (743)", "group": "gnss", "lat": -33.16353006981677, "lon": -83.08322650800989, "alt_km": 19077.384177174066, "timestamp": "2025-12-10T21:43:22.330344+00:00", "meta": {"OBJECT_NAME": "COSMOS 2475 (743)", "OBJECT_ID": "2011-064C", "EPOCH": "2025-12-09T06:02:05.700768", "MEAN_MOTION": 2.13101306, "ECCENTRICITY": 0.0026081, "INCLINATION": 65.1742, "RA_OF_ASC_NODE": 79.3871, "ARG_OF_PERICENTER": 248.2695, "MEAN_ANOMALY": 140.2782, "EPHEMERIS_TYPE": 0, "CLASSIFICATION_TYPE": "U", "NORAD_CAT_ID": 37869, "ELEMENT_SET_NO": 999, "REV_AT_EPOCH": 10972, "BSTAR": 0, "MEAN_MOTION_DOT": -1.3e-07, "MEAN_MOTION_DDOT": 0}, "tle": {"line1": "1 37869U 11064C   25343.25145487 -.00000013  00000+0  00000+0 0  9991", "line2": "2 37869  65.1742  79.3871 0026081 248.2695 140.2782  2.13101306109728"}}, "geometry": {"type": "Point", "coordinates": [-83.08322650800989, -33.16353006981677]}}, {"type": "Feature", "properties": {"norad_id": 37948, "name": "BEIDOU-2 IGSO-5 (C10)", "group": "gnss", "lat": -31.598044032306856, "lon": 127.41568674403561, "alt_km": 35321.29865639176, "timestamp": "2025-12-10T21:43:22.330364+00:00", "meta": {"OBJECT_NAME": "BEIDOU-2 IGSO-5 (C10)", "OBJECT_ID": "2011-073A", "EPOCH": "2025-12-09T19:08:31.399296", "MEAN_MOTION": 1.00291503, "ECCENTRICITY": 0.01103013, "INCLINATION": 48.0257, "RA_OF_ASC_NODE": 273.8934, "ARG_OF_PERICENTER": 222.2261, "MEAN_ANOMALY": 322.5967, "EPHEMERIS_TYPE": 0, "CLASSIFICATION_TYPE": "U", "NORAD_CAT_ID": 37948, "ELEMENT_SET_NO": 999, "REV_AT_EPOCH": 5123, "BSTAR": 0, "MEAN_MOTION_DOT": -2.09e-06, "MEAN_MOTION_DDOT": 0}, "tle": {"line1": "1 37948U 11073A   25343.79758564 -.00000209  00000+0  00000+0 0  9991", "line2": "2 37948  48.0257 273.8934 0110301 222.2261 322.5967  1.00291503 51234"}}, "geometry": {"type": "Point", "coordinates": [127.41568674403561, -31.598044032306856]}}, {"type": "Feature", "properties": {"norad_id": 37951, "name": "LUCH 5A (SDCM/PRN 140)", "group": "gnss", "lat": 5.7160352740219595, "lon": -146.97362026247856, "alt_km": 35767.0561049559, "timestamp": "2025-12-10T21:43:22.330377+00:00", "meta": {"OBJECT_NAME": "LUCH 5A (SDCM/PRN 140)", "OBJECT_ID": "2011-074B", "EPOCH": "2025-12-10T05:50:44.018592", "MEAN_MOTION": 1.00274445, "ECCENTRICITY": 0.00056842, "INCLINATION": 8.2738, "RA_OF_ASC_NODE": 76.6214, "ARG_OF_PERICENTER": 179.2876, "MEAN_ANOMALY": 78.0373, "EPHEMERIS_TYPE": 0, "CLASSIFICATION_TYPE": "U", "NORAD_CAT_ID": 37951, "ELEMENT_SET_NO": 999, "REV_AT_EPOCH": 5115, "BSTAR": 0, "MEAN_MOTION_DOT": -4.6e-07, "MEAN_MOTION_DDOT": 0}, "tle": {"line1": "1 37951U 11074B   25344.24356503 -.00000046  00000+0  00000+0 0  9993", "line2": "2 37951   8.2738  76.6214 0005684 179.2876  78.0373  1.00274445 51151"}}, "geometry": {"type": "Point", "coordinates": [-146.97362026247856, 5.7160352740219595]}}, {"type": "Feature", "properties": {"norad_id": 38091, "name": "BEIDOU-2 G5 (C05)", "group": "gnss", "lat": 1.7430641752170044, "lon": 104.47201903528202, "alt_km": 35836.77248047947, "timestamp": "2025-12-10T21:43:22.330394+00:00", "meta": {"OBJECT_NAME": "BEIDOU-2 G5 (C05)", "OBJECT_ID": "2012-008A", "EPOCH": "2025-12-10T16:02:24.737568", "MEAN_MOTION": 1.0027475, "ECCENTRICITY": 0.00125684, "INCLINATION": 3.1043, "RA_OF_ASC_NODE": 70.7102, "ARG_OF_PERICENTER": 226.6233, "MEAN_ANOMALY": 81.6713, "EPHEMERIS_TYPE": 0, "CLASSIFICATION_TYPE": "U", "NORAD_CAT_ID": 38091, "ELEMENT_SET_NO": 999, "REV_AT_EPOCH": 5047, "BSTAR": 0, "MEAN_MOTION_DOT": 6e-07, "MEAN_MOTION_DDOT": 0}, "tle": {"line1": "1 38091U 12008A   25344.66834187  .00000060  00000+0  00000+0 0  9997", "line2": "2 38091   3.1043  70.7102 0012568 226.6233  81.6713  1.00274750 50475"}}, "geometry": {"type": "Point", "coordinates": [104.47201903528202, 1.7430641752170044]}}, {"type": "Feature", "properties": {"norad_id": 38250, "name": "BEIDOU-2 M3 (C11)", "group": "gnss", "lat": 41.96513006051194, "lon": 93.72790145997365, "alt_km": 21580.848279351765, "timestamp": "2025-12-10T21:43:22.330407+00:00", "meta": {"OBJECT_NAME": "BEIDOU-2 M3 (C11)", "OBJECT_ID": "2012-018A", "EPOCH": "2025-12-09T02:31:53.071968", "MEAN_MOTION": 1.86229533, "ECCENTRICITY": 0.00244707, "INCLINATION": 55.9232, "RA_OF_ASC_NODE": 311.2798, "ARG_OF_PERICENTER": 273.7022, "MEAN_ANOMALY": 86.0063, "EPHEMERIS_TYPE": 0, "CLASSIFICATION_TYPE": "U", "NORAD_CAT_ID": 38250, "ELEMENT_SET_NO": 999, "REV_AT_EPOCH": 9240, "BSTAR": 0, "MEAN_MOTION_DOT": -7.5e-07, "MEAN_MOTION_DDOT": 0}, "tle": {"line1": "1 38250U 12018A   25343.10547537 -.00000075  00000+0  00000+0 0  9990", "line2": "2 38250  55.9232 311.2798 0024470 273.7022  86.0063  1.86229533 92404"}}, "geometry": {"type": "Point", "coordinates": [93.72790145997365, 41.96513006051194]}}, {"type": "Feature", "properties": {"norad_id": 38251, "name": "BEIDOU-2 M4 (C12)", "group": "gnss", "lat": 6.768025369259598, "lon": 125.80910922981109, "alt_km": 21538.958274690573, "timestamp": "2025-12-10T21:43:22.330420+00:00", "meta": {"OBJECT_NAME": "BEIDOU-2 M4 (C12)", "OBJECT_ID": "2012-018B", "EPOCH": "2025-12-09T00:54:02.015712", "MEAN_MOTION": 1.86229239, "ECCENTRICITY": 0.001562, "INCLINATION": 55.8247, "RA_OF_ASC_NODE": 310.5113, "ARG_OF_PERICENTER": 276.8164, "MEAN_ANOMALY": 82.9941, "EPHEMERIS_TYPE": 0, "CLASSIFICATION_TYPE": "U", "NORAD_CAT_ID": 38251, "ELEMENT_SET_NO": 999, "REV_AT_EPOCH": 9240, "BSTAR": 0, "MEAN_MOTION_DOT": -7.4e-07, "MEAN_MOTION_DDOT": 0}, "tle": {"line1": "1 38251U 12018B   25343.03752333 -.00000074  00000+0  00000+0 0  9994", "line2": "2 38251  55.8247 310.5113 0015620 276.8164  82.9941  1.86229239 92404"}}, "geometry": {"type": "Point", "coordinates": [125.80910922981109, 6.768025369259598]}}, {"type": "Feature", "properties": {"norad_id": 38652, "name": "SES-5 (EGNOS/PRN 136)", "group": "gnss", "lat": 0.07095300058068237, "lon": 50.708279919015105, "alt_km": 35794.14614026698, "timestamp": "2025-12-10T21:43:22.330443+00:00", "meta": {"OBJECT_NAME": "SES-5 (EGNOS/PRN 136)", "OBJECT_ID": "2012-036A", "EPOCH": "2025-12-10T06:21:38.695680", "MEAN_MOTION": 1.00271686, "ECCENTRICITY": 0.00020989, "INCLINATION": 0.0574, "RA_OF_ASC_NODE": 305.2064, "ARG_OF_PERICENTER": 309.8812, "MEAN_ANOMALY": 284.5515, "EPHEMERIS_TYPE": 0, "CLASSIFICATION_TYPE": "U", "NORAD_CAT_ID": 38652, "ELEMENT_SET_NO": 999, "REV_AT_EPOCH": 4257, "BSTAR": 0, "MEAN_MOTION_DOT": 3.7e-07, "MEAN_MOTION_DDOT": 0}, "tle": {"line1": "1 38652U 12036A   25344.26503120  .00000037  00000+0  00000+0 0  9991", "line2": "2 38652   0.0574 305.2064 0002098 309.8812 284.5515  1.00271686 42571"}}, "geometry": {"type": "Point", "coordinates": [50.708279919015105, 0.07095300058068237]}}, {"type": "Feature", "properties": {"norad_id": 38775, "name": "BEIDOU-2 M6 (C14)", "group": "gnss", "lat": 4.946062476204596, "lon": 72.43327468501325, "alt_km": 21498.81370575116, "timestamp": "2025-12-10T21:43:22.330460+00:00", "meta": {"OBJECT_NAME": "BEIDOU-2 M6 (C14)", "OBJECT_ID": "2012-050B", "EPOCH": "2025-12-09T06:50:59.454240", "MEAN_MOTION": 1.86230769, "ECCENTRICITY": 0.00110803, "INCLINATION": 56.3755, "RA_OF_ASC_NODE": 69.1821, "ARG_OF_PERICENTER": 345.0946, "MEAN_ANOMALY": 14.8952, "EPHEMERIS_TYPE": 0, "CLASSIFICATION_TYPE": "U", "NORAD_CAT_ID": 38775, "ELEMENT_SET_NO": 999, "REV_AT_EPOCH": 8977, "BSTAR": 0, "MEAN_MOTION_DOT": -4.8e-07, "MEAN_MOTION_DDOT": 0}, "tle": {"line1": "1 38775U 12050B   25343.28541035 -.00000048  00000+0  00000+0 0  9994", "line2": "2 38775  56.3755  69.1821 0011080 345.0946  14.8952  1.86230769 89773"}}, "geometry": {"type": "Point", "coordinates": [72.43327468501325, 4.946062476204596]}}]}